{"type": "FeatureCollection", "features": [ {"type": "Feature", "properties": {"norad_id": 33625, "name": "FENGYUN 1C DEB", "group": "fengyun-1c-debris", "lat": 30.64599194298093, "lon": -66.25325401676533, "alt_km": 576.6250189696739, "timestamp": "2025-12-23T11:34:48.449266+00:00", "meta": {"OBJECT_NAME": "FENGYUN 1C DEB", "OBJECT_ID": "1999-025DDJ", "EPOCH": "2025-12-22T18:29:10.172832", "MEAN_MOTION": 14.61162738, "ECCENTRICITY": 0.02254632, "INCLINATION": 98.6202, "RA_OF_ASC_NODE": 107.8479, "ARG_OF_PERICENTER": 104.3386, "MEAN_ANOMALY": 258.2958, "EPHEMERIS_TYPE": 0, "CLASSIFICATION_TYPE": "U", "NORAD_CAT_ID": 33625, "ELEMENT_SET_NO": 999, "REV_AT_EPOCH": 61537, "BSTAR": 0.0010940286, "MEAN_MOTION_DOT": 7.684e-05, "MEAN_MOTION_DDOT": 0}, "tle": {"line1": "1 33625U 99025DDJ 25356.77025663  .00007684  00000+0  10940-2 0  9991", "line2": "2 33625  98.6202 107.8479 0225463 104.3386 258.2958 14.61162738615371"}}, "geometry": {"type": "Point", "coordinates": [-66.25325401676533, 30.64599194298093]}}, {"type": "Feature", "properties": {"norad_id": 33630, "name": "FENGYUN 1C DEB", "group": "fengyun-1c-debris", "lat": 64.92345434576063, "lon": 84.45157162197602, "alt_km": 741.3070510674552, "timestamp": "2025-12-23T11:34:48.449275+00:00", "meta": {"OBJECT_NAME": "FENGYUN 1C DEB", "OBJECT_ID": "1999-025DDP", "EPOCH": "2025-12-16T13:17:07.494144", "MEAN_MOTION": 14.17726795, "ECCENTRICITY": 0.01350341, "INCLINATION": 98.616, "RA_OF_ASC_NODE": 96.6346, "ARG_OF_PERICENTER": 57.1725, "MEAN_ANOMALY": 304.237, "EPHEMERIS_TYPE": 0, "CLASSIFICATION_TYPE": "U", "NORAD_CAT_ID": 33630, "ELEMENT_SET_NO": 999, "REV_AT_EPOCH": 64465, "BSTAR": 0.00032109765, "MEAN_MOTION_DOT": 6.74e-06, "MEAN_MOTION_DDOT": 0}, "tle": {"line1": "1 33630U 99025DDP 25350.55355896  .00000674  00000+0  32110-3 0  9997", "line2": "2 33630  98.6160  96.6346 0135034  57.1725 304.2370 14.17726795644657"}}, "geometry": {"type": "Point", "coordinates": [84.45157162197602, 64.92345434576063]}}, {"type": "Feature", "properties": {"norad_id": 33633, "name": "FENGYUN 1C DEB", "group": "fengyun-1c-debris", "lat": 7.840984061241135, "lon": -86.74915324569524, "alt_km": 791.5296477029451, "timestamp": "2025-12-23T11:34:48.449285+00:00", "meta": {"OBJECT_NAME": "FENGYUN 1C DEB", "OBJECT_ID": "1999-025DDS", "EPOCH": "2025-12-20T05:05:42.485856", "MEAN_MOTION": 14.19397127, "ECCENTRICITY": 0.00829513, "INCLINATION": 99.057, "RA_OF_ASC_NODE": 88.6497, "ARG_OF_PERICENTER": 129.8844, "MEAN_ANOMALY": 260.3067, "EPHEMERIS_TYPE": 0, "CLASSIFICATION_TYPE": "U", "NORAD_CAT_ID": 33633, "ELEMENT_SET_NO": 999, "REV_AT_EPOCH": 90817, "BSTAR": 0.0014541583, "MEAN_MOTION_DOT": 3.12e-05, "MEAN_MOTION_DDOT": 0}, "tle": {"line1": "1 33633U 99025DDS 25354.21229729  .00003120  00000+0  14542-2 0  9999", "line2": "2 33633  99.0570  88.6497 0082951 129.8844 260.3067 14.19397127908176"}}, "geometry": {"type": "Point", "coordinates": [-86.74915324569524, 7.840984061241135]}}, {"type": "Feature", "properties": {"norad_id": 33637, "name": "FENGYUN 1C DEB", "group": "fengyun-1c-debris", "lat": 2.84233285037895, "lon": 41.89391208285703, "alt_km": 797.9630047556966, "timestamp": "2025-12-23T11:34:48.449295+00:00", "meta": {"OBJECT_NAME": "FENGYUN 1C DEB", "OBJECT_ID": "1999-025DDW", "EPOCH": "2025-12-22T20:31:28.911936", "MEAN_MOTION": 14.36813194, "ECCENTRICITY": 0.008304, "INCLINATION": 98.4926, "RA_OF_ASC_NODE": 41.7001, "ARG_OF_PERICENTER": 121.6537, "MEAN_ANOMALY": 239.2783, "EPHEMERIS_TYPE": 0, "CLASSIFICATION_TYPE": "U", "NORAD_CAT_ID": 33637, "ELEMENT_SET_NO": 999, "REV_AT_EPOCH": 64983, "BSTAR": 0.0011662, "MEAN_MOTION_DOT": 3.541e-05, "MEAN_MOTION_DDOT": 0}, "tle": {"line1": "1 33637U 99025DDW 25356.85519574  .00003541  00000+0  11662-2 0  9992", "line2": "2 33637  98.4926  41.7001 0083040 121.6537 239.2783 14.36813194649839"}}, "geometry": {"type": "Point", "coordinates": [41.89391208285703, 2.84233285037895]}}, {"type": "Feature", "properties": {"norad_id": 33638, "name": "FENGYUN 1C DEB", "group": "fengyun-1c-debris", "lat": 49.858012355378776, "lon": -123.27998519291614, "alt_km": 1186.351761867717, "timestamp": "2025-12-23T11:34:48.449304+00:00", "meta": {"OBJECT_NAME": "FENGYUN 1C DEB", "OBJECT_ID": "1999-025DDX", "EPOCH": "2025-12-22T12:31:35.618592", "MEAN_MOTION": 13.69332139, "ECCENTRICITY": 0.02639098, "INCLINATION": 98.4648, "RA_OF_ASC_NODE": 246.0451, "ARG_OF_PERICENTER": 246.8978, "MEAN_ANOMALY": 110.4157, "EPHEMERIS_TYPE": 0, "CLASSIFICATION_TYPE": "U", "NORAD_CAT_ID": 33638, "ELEMENT_SET_NO": 999, "REV_AT_EPOCH": 61049, "BSTAR": 0.000991659, "MEAN_MOTION_DOT": 1.061e-05, "MEAN_MOTION_DDOT": 0}, "tle": {"line1": "1 33638U 99025DDX 25356.52194003  .00001061  00000+0  99166-3 0  9994", "line2": "2 33638  98.4648 246.0451 0263909 246.8978 110.4157 13.69332139610498"}}, "geometry": {"type": "Point", "coordinates": [-123.27998519291614, 49.858012355378776]}}, {"type": "Feature", "properties": {"norad_id": 33639, "name": "FENGYUN 1C DEB", "group": "fengyun-1c-debris", "lat": -40.79929093063073, "lon": -98.95215815754894, "alt_km": 733.9011437023128, "timestamp": "2025-12-23T11:34:48.449313+00:00", "meta": {"OBJECT_NAME": "FENGYUN 1C DEB", "OBJECT_ID": "1999-025DDY", "EPOCH": "2025-12-14T11:30:34.684704", "MEAN_MOTION": 14.40475035, "ECCENTRICITY": 0.00499213, "INCLINATION": 98.7123, "RA_OF_ASC_NODE": 79.4896, "ARG_OF_PERICENTER": 283.4225, "MEAN_ANOMALY": 76.1402, "EPHEMERIS_TYPE": 0, "CLASSIFICATION_TYPE": "U", "NORAD_CAT_ID": 33639, "ELEMENT_SET_NO": 999, "REV_AT_EPOCH": 60607, "BSTAR": 0.0023798225, "MEAN_MOTION_DOT": 7.641e-05, "MEAN_MOTION_DDOT": 0}, "tle": {"line1": "1 33639U 99025DDY 25348.47956811  .00007641  00000+0  23798-2 0  9990", "line2": "2 33639  98.7123  79.4896 0049921 283.4225  76.1402 14.40475035606072"}}, "geometry": {"type": "Point", "coordinates": [-98.95215815754894, -40.79929093063073]}}, {"type": "Feature", "properties": {"norad_id": 33640, "name": "FENGYUN 1C DEB", "group": "fengyun-1c-debris", "lat": -75.24409953087182, "lon": 84.45463198652087, "alt_km": 788.0963599580255, "timestamp": "2025-12-23T11:34:48.449321+00:00", "meta": {"OBJECT_NAME": "FENGYUN 1C DEB", "OBJECT_ID": "1999-025DDZ", "EPOCH": "2025-12-23T02:05:36.299616", "MEAN_MOTION": 14.45926578, "ECCENTRICITY": 0.0091253, "INCLINATION": 98.8433, "RA_OF_ASC_NODE": 300.2764, "ARG_OF_PERICENTER": 128.8232, "MEAN_ANOMALY": 232.115, "EPHEMERIS_TYPE": 0, "CLASSIFICATION_TYPE": "U", "NORAD_CAT_ID": 33640, "ELEMENT_SET_NO": 999, "REV_AT_EPOCH": 92492, "BSTAR": 0.00046777, "MEAN_MOTION_DOT": 1.701e-05, "MEAN_MOTION_DDOT": 0}, "tle": {"line1": "1 33640U 99025DDZ 25357.08722569  .00001701  00000+0  46777-3 0  9994", "line2": "2 33640  98.8433 300.2764 0091253 128.8232 232.1150 14.45926578924922"}}, "geometry": {"type": "Point", "coordinates": [84.45463198652087, -75.24409953087182]}}, {"type": "Feature", "properties": {"norad_id": 33648, "name": "FENGYUN 1C DEB", "group": "fengyun-1c-debris", "lat": -53.75245416882564, "lon": 7.95243617009001, "alt_km": 907.812645932966, "timestamp": "2025-12-23T11:34:48.449330+00:00", "meta": {"OBJECT_NAME": "FENGYUN 1C DEB", "OBJECT_ID": "1999-025DEH", "EPOCH": "2025-12-22T06:55:33.813984", "MEAN_MOTION": 14.1177959, "ECCENTRICITY": 0.00693381, "INCLINATION": 98.7195, "RA_OF_ASC_NODE": 354.7094, "ARG_OF_PERICENTER": 147.1409, "MEAN_ANOMALY": 213.4103, "EPHEMERIS_TYPE": 0, "CLASSIFICATION_TYPE": "U", "NORAD_CAT_ID": 33648, "ELEMENT_SET_NO": 999, "REV_AT_EPOCH": 64511, "BSTAR": 0.00012882594, "MEAN_MOTION_DOT": 1.98e-06, "MEAN_MOTION_DDOT": 0}, "tle": {"line1": "1 33648U 99025DEH 25356.28858581  .00000198  00000+0  12883-3 0  9997", "line2": "2 33648  98.7195 354.7094 0069338 147.1409 213.4103 14.11779590645117"}}, "geometry": {"type": "Point", "coordinates": [7.95243617009001, -53.75245416882564]}}, {"type": "Feature", "properties": {"norad_id": 33650, "name": "FENGYUN 1C DEB", "group": "fengyun-1c-debris", "lat": -66.12994987759834, "lon": -176.8694225168064, "alt_km": 987.9128714482758, "timestamp": "2025-12-23T11:34:48.449339+00:00", "meta": {"OBJECT_NAME": "FENGYUN 1C DEB", "OBJECT_ID": "1999-025DEK", "EPOCH": "2025-12-16T17:25:23.418336", "MEAN_MOTION": 13.89200794, "ECCENTRICITY": 0.01497023, "INCLINATION": 98.9866, "RA_OF_ASC_NODE": 155.6582, "ARG_OF_PERICENTER": 68.1425, "MEAN_ANOMALY": 293.558, "EPHEMERIS_TYPE": 0, "CLASSIFICATION_TYPE": "U", "NORAD_CAT_ID": 33650, "ELEMENT_SET_NO": 999, "REV_AT_EPOCH": 68864, "BSTAR": 0.00064639635, "MEAN_MOTION_DOT": 8.18e-06, "MEAN_MOTION_DDOT": 0}, "tle": {"line1": "1 33650U 99025DEK 25350.72596549  .00000818  00000+0  64640-3 0  9993", "line2": "2 33650  98.9866 155.6582 0149702  68.1425 293.5580 13.89200794688643"}}, "geometry": {"type": "Point", "coordinates": [-176.8694225168064, -66.12994987759834]}}, {"type": "Feature", "properties": {"norad_id": 33651, "name": "FENGYUN 1C DEB", "group": "fengyun-1c-debris", "lat": -34.61863670636969, "lon": 48.875966337678506, "alt_km": 784.9042572722137, "timestamp": "2025-12-23T11:34:48.449348+00:00", "meta": {"OBJECT_NAME": "FENGYUN 1C DEB", "OBJECT_ID": "1999-025DEL", "EPOCH": "2025-12-21T09:01:21.702432", "MEAN_MOTION": 14.20361447, "ECCENTRICITY": 0.01173993, "INCLINATION": 98.6555, "RA_OF_ASC_NODE": 40.778, "ARG_OF_PERICENTER": 29.2021, "MEAN_ANOMALY": 331.5653, "EPHEMERIS_TYPE": 0, "CLASSIFICATION_TYPE": "U", "NORAD_CAT_ID": 33651, "ELEMENT_SET_NO": 999, "REV_AT_EPOCH": 64394, "BSTAR": 0.00012970864, "MEAN_MOTION_DOT": 2.55e-06, "MEAN_MOTION_DDOT": 0}, "tle": {"line1": "1 33651U 99025DEL 25355.37594563  .00000255  00000+0  12971-3 0  9999", "line2": "2 33651  98.6555  40.7780 0117399  29.2021 331.5653 14.20361447643944"}}, "geometry": {"type": "Point", "coordinates": [48.875966337678506, -34.61863670636969]}}]}